GLOBAL-2                
1 43812U 18099BG  24359.12422678  .00006806  00000+0  50154-3 0  9997
2 43812  97.4333  46.3637 0006013 184.5507 175.5666 15.03617693330607
BRIO                    
1 43813U 18099BH  24358.58114899  .00059204  00000+0  17895-2 0  9994
2 43813  97.5438  68.1503 0005111 349.2822  10.8311 15.34004411331518
SEAHAWK-1               
1 43820U 18099BQ  24358.61842654  .00013063  00000+0  79078-3 0  9998
2 43820  97.4789  50.1883 0011501  36.9260 323.2760 15.10684564330573
SAUDISAT 5A             
1 43831U 18102A   24359.44201208  .00010889  00000+0  50789-3 0  9992
2 43831  97.3849  60.7468 0010290 230.9638 129.0682 15.19985009333458
SAUDISAT 5B             
1 43833U 18102C   24359.47023559  .00011065  00000+0  50780-3 0  9996
2 43833  97.3912  62.9062 0011022 235.1397 124.8802 15.20535201333553
2018-102D               
1 43834U 18102D   24359.54923344  .00029930  00000+0  10186-2 0  9991
2 43834  97.4033  69.4561 0008777 217.8089 142.2536 15.30336916333914
2018-102E               
1 43835U 18102E   24359.46494534  .00206152  00000+0  17587-2 0  9992
2 43835  97.4120  82.1449 0004828 199.8931 160.2143 15.68876179334722
2018-102F               
1 43836U 18102F   24359.01460759  .00333894  00000+0  19174-2 0  9994
2 43836  97.4137  84.2799 0004790 221.0719 139.0187 15.77836111334737
2018-102G               
1 43837U 18102G   24359.51674282  .04573841  24460-5  19348-2 0  9995
2 43837  97.4110  88.7291 0007611 285.5524  74.4926 16.22881109335067
2018-102J               
1 43839U 18102J   24358.93939350  .00305473  00000+0  19633-2 0  9997
2 43839  97.4324  89.2906 0005598 216.5515 143.5368 15.75332508334823
ISAT                    
1 43879U 18111D   24358.74025858  .00024375  00000+0  11265-2 0  9991
2 43879  97.6063 264.5378 0013558  67.2264 293.0402 15.20089532326093
UWE-4                   
1 43880U 18111E   24359.17226495  .00023818  00000+0  11698-2 0  9992
2 43880  97.5994 264.3836 0016579  74.5608 285.7455 15.17942014326166
D-STAR ONE (SPARROW)    
1 43881U 18111F   24358.30532662  .00030378  00000+0  13723-2 0  9993
2 43881  97.6178 266.4288 0010729  99.2982 260.9467 15.20857367328122
LEMUR-2-TINYKEV         
1 43883U 18111H   24358.84386287  .00890967  00000+0  34887-2 0  9996
2 43883  97.5638 279.3874 0011974  96.3248 263.9386 15.84761567327100
LEMUR-2-REMY-COLTON     
1 43884U 18111J   24359.29588591  .00085534  00000+0  19776-2 0  9995
2 43884  97.6229 277.4428 0003808  71.1487 289.0172 15.42170481326907
JILIN-1 09              
1 43943U 19005B   24359.52514494  .00010898  00000+0  59324-3 0  9996
2 43943  97.4858  90.4598 0004461 141.3556 218.7996 15.14603718327315
JILIN-1 10              
1 43946U 19005E   24359.53776646  .00011920  00000+0  60093-3 0  9991
2 43946  97.4856  90.7112 0011586  10.7225 349.4253 15.17246455327254
EGYPTSAT-A (MISRSAT-A)  
1 44047U 19008A   24359.53164068  .00001753  00000+0  28521-3 0  9999
2 44047  98.0200  61.0462 0001057  75.3974 284.7351 14.72287195313831
EMISAT                  
1 44078U 19018A   24359.45050358  .00000669  00000+0  20913-3 0  9993
2 44078  98.3139  54.5881 0019433  49.8894 310.3997 14.43700519302170
JILIN-1 GAOFEN 3A       
1 44312U 19032C   24359.51969746  .00015195  00000+0  75035-3 0  9992
2 44312  44.9847  54.1420 0007995  79.0159 281.1619 15.17771952305516
XIAOXIANG 4             
1 44313U 19032D   24359.51181066  .00044762  00000+0  13599-2 0  9992
2 44313  44.9968  21.5844 0011021  70.1736 290.0336 15.33370221305930
WT 1A                   
1 44315U 19032F   24359.46726178  .00033704  00000+0  12475-2 0  9993
2 44315  44.9907  23.5846 0009714 102.1313 258.0659 15.27118740305865
WT 1B                   
1 44316U 19032G   24359.53293025  .00014001  00000+0  80307-3 0  9991
2 44316  44.9785  94.5993 0011155  45.1141 315.0640 15.12493928304993
PROX-1                  
1 44339U 19036A   24359.43622671  .00021141  00000+0  30988-2 0  9994
2 44339  23.9986  75.0583 0006958 339.3183  20.7030 14.74072123293364
NPSAT1                  
1 44340U 19036B   24359.40625927  .00012143  00000+0  21197-2 0  9994
2 44340  23.9986 112.3770 0008245 262.5751  97.3806 14.66160456292995
FORMOSAT 7-3            
1 44343U 19036E   24359.12358202  .00012032  00000+0  74745-3 0  9990
2 44343  24.0004 285.2450 0001218 186.9106 173.1380 15.07610000301725
FORMOSAT 7-1            
1 44349U 19036L   24358.59500995  .00010531  00000+0  65206-3 0  9998
2 44349  23.9987 104.8658 0002443 107.9005 252.1765 15.07585222303372
FORMOSAT 7-4            
1 44350U 19036M   24358.81499046  .00010607  00000+0  65689-3 0  9998
2 44350  23.9975 165.4429 0001632 144.7029 215.3582 15.07587503302847
FORMOSAT 7-2            
1 44351U 19036N   24359.30053980  .00011821  00000+0  73403-3 0  9999
2 44351  23.9976 216.4373 0001373 173.0957 186.9565 15.07607031302406
FORMOSAT 7-6            
1 44353U 19036Q   24358.50632241  .00011303  00000+0  70172-3 0  9990
2 44353  24.0002  42.7070 0001829 140.2849 219.7789 15.07568347300504
FORMOSAT 7-5            
1 44358U 19036V   24359.27847550  .00012876  00000+0  80156-3 0  9990
2 44358  24.0008 337.1950 0001509 180.0536 179.9968 15.07598627301188
METEOR-M2 2             
1 44387U 19038A   24359.49853318  .00000395  00000+0  19155-3 0  9991
2 44387  98.8537 329.7433 0002093 112.0253 248.1148 14.24097149284471
SONATE                  
1 44400U 19038Q   24358.50219856  .00065532  00000+0  11024-2 0  9991
2 44400  97.7128   3.2384 0013117 135.3792 224.8517 15.51422175303245
COSMOS 2535             
1 44421U 19039A   24359.45817153  .00003586  00000+0  37842-3 0  9992
2 44421  97.6435  35.8852 0008095 198.7801 161.3119 14.89873002296111
QIANSHENG 1-01          
1 44486U 19052A   24359.42923382  .00063279  00000+0  14515-2 0  9993
2 44486  97.3856  67.8987 0009282 341.2770  18.8135 15.42469633295843
GLOBAL-4                
1 44499U 19054E   24358.49960446  .00034608  00000+0  84909-3 0  9996
2 44499  45.0152  32.7541 0006143 340.2320  19.8329 15.40148687296664
XIAOXIANG 1-07          
1 44519U 19058A   24359.47276873  .00318324  00000+0  34602-2 0  9990
2 44519  97.7493  28.4352 0000896 246.1147 114.0016 15.62423368290886
ZY-1 02D                
1 44528U 19059A   24359.48151963  .00000538  00000+0  20213-3 0  9993
2 44528  98.3910  66.9324 0000386 340.0177  20.0994 14.35424148276919
TAURUS-1 (JINNIUZUO 1)  
1 44530U 19059C   24359.46654813  .00016646  00000+0  33682-2 0  9996
2 44530  98.5889 125.6733 0010750 190.8070 169.2900 14.61342958279491
ZHUHAI-1 03A            
1 44534U 19060A   24359.54005513  .00060472  00000+0  13282-2 0  9998
2 44534  97.5058 131.1298 0010096  66.4620 293.7688 15.43769853293289
ZHUHAI-1 03B            
1 44536U 19060C   24359.41936784  .00036894  00000+0  12473-2 0  9991
2 44536  97.4983 131.6096 0013461 109.1160 251.1540 15.30456279293300
ZHUHAI-1 03C            
1 44537U 19060D   24359.46156191  .00038582  00000+0  12500-2 0  9990
2 44537  97.5231 132.4764 0021726  77.0329 283.3336 15.31677205293431
ZHUHAI-1 03D            
1 44538U 19060E   24359.43344241  .00029992  00000+0  11754-2 0  9998
2 44538  97.4799 127.9604 0013718  85.0328 275.2476 15.25637737293256
ZHUHAI-1 03E            
1 44539U 19060F   24359.53463950  .00031208  00000+0  11829-2 0  9995
2 44539  97.5038 129.8310 0014258 126.3255 233.9302 15.26732456293161
ATLAS 5 CENTAUR DEB     
1 44694U 18079BG  24355.51668237 -.00000116  00000+0  00000+0 0  9996
2 44694  12.8513  83.4467 4790468 212.2653 106.3250  1.77433404 36919
GAOFEN-7                
1 44703U 19072A   24359.47976182  .00012176  00000+0  54623-3 0  9993
2 44703  97.3148  67.7767 0009967 113.2630 246.9656 15.21298178285589
STARLINK-1010           
1 44716U 19074D   24359.43424370  .00014668  00000+0  10005-2 0  9995
2 44716  53.0564   2.9995 0001618  92.5226 267.5948 15.06438613282542
JILIN-1 GAOFEN 2A       
1 44777U 19075A   24359.49162451  .00017866  00000+0  77311-3 0  9995
2 44777  97.5558  64.8635 0009231 187.8782 172.2310 15.22454807282318
NINGXIA-1 1             
1 44779U 19076A   24359.51830353  .00000124  00000+0  16541-3 0  9991
2 44779  45.0075  71.2438 0009949 128.6656 231.5070 14.01971011262120
NINGXIA-1 5             
1 44783U 19076E   24359.53340293  .00000106  00000+0  15416-3 0  9997
2 44783  45.0073  70.5488 0010170 116.5321 243.6557 14.01890424262136
KL-ALPHA A              
1 44785U 19077A   24358.83031688  .00000143  00000+0  18731-3 0  9991
2 44785  88.9084 282.4291 0009156 242.4049 117.6175 13.55965525252509
CARTOSAT-3              
1 44804U 19081A   24359.39708767  .00009781  00000+0  46647-3 0  9993
2 44804  97.5081  56.3473 0014243 232.8272 127.1663 15.19207708281467
JILIN-1 GAOFEN 2B       
1 44836U 19086A   24359.49864786  .00012815  00000+0  69106-3 0  9995
2 44836  97.5547  64.9386 0008215 351.6250   8.4844 15.14879722278683
DUCHIFAT-3              
1 44854U 19089C   24359.31030500  .00045131  00000+0  15387-2 0  9996
2 44854  36.9509 324.7368 0012995 250.1689 109.7662 15.29335481277186
ANGELS                  
1 44876U 19092D   24359.25589215  .00032863  00000+0  10362-2 0  9995
2 44876  97.4634 188.7348 0009286  15.0121 345.1395 15.32772652278410
TIANQIN 1 (CAS-6)       
1 44879U 19093A   24359.48693544  .00007895  00000+0  81451-3 0  9990
2 44879  97.8224  76.7474 0013215  50.9684 309.2708 14.90400300271500
ETRSS-1                 
1 44880U 19093B   24359.51090807  .00008478  00000+0  87044-3 0  9991
2 44880  97.8235  76.9657 0013633  52.3443 307.9010 14.90567219271506
TIANYAN 01              
1 44881U 19093C   24359.48615675  .00002648  00000+0  31699-3 0  9992
2 44881  97.8121  72.5619 0015241  62.6572 297.6192 14.84875775271277
TIANYAN 02              
1 44882U 19093D   24359.47072663  .00012658  00000+0  11541-2 0  9991
2 44882  97.8334  80.8634 0013068  43.6054 316.6197 14.95187636271677
